BANDWAGON-2 OBJECT D    
1 62380U 24247D   26068.52261193  .00011259  00000+0  40119-3 0  9994
2 62380  44.9954 115.6710 0003488 351.1453   8.9368 15.29076102 67732
STARLINK-34733          
1 66487U 25263C   26068.17221334  .00038612  00000+0  14055-2 0  9990
2 66487  43.0038 353.2895 0001439 252.0512 108.0183 15.27575434 18823
